format  = 'OEF2.0'       ! file format
rectype = '1L'           ! record type (1L/ML)
elem    = 'KEP'          ! type of orbital elements
refsys  = ECLM J2000     ! default reference system
END_OF_HEADER
! Name, Epoch(MJD), a, e, i, long. node, arg. peric., mean anomaly
'1'            57400.000000   2.7681116169078508E+00   7.5754391585429404E-02   1.0591658344938324E+01   8.0321792879303757E+01   7.2733297078768388E+01   1.8138128643211127E+02  3.41  0.12  0
'2'            57400.000000   2.7723621226386661E+00   2.3102360127292934E-01   3.4840949395476549E+01   1.7308827979469351E+02   3.0998944659050289E+02   1.6360442249638427E+02  4.09  0.11  0
'3'            57400.000000   2.6697632637334250E+00   2.5626561846042323E-01   1.2989873542644949E+01   1.6986256160534012E+02   2.4829397531161771E+02   1.2346678259319752E+02  5.34  0.32  0
'4'            57400.000000   2.3616694638626146E+00   8.8922350304265360E-02   7.1400486861217551E+00   1.0384610761631606E+02   1.5113750705837498E+02   1.2952978554891516E+02  3.35  0.32  0
'5'            57400.000000   2.5741810831171694E+00   1.9140214417901175E-01   5.3684684684010007E+00   1.4159589239607186E+02   3.5894652214065650E+02   3.5566521695864992E+02  6.93  0.15  0
'6'            57400.000000   2.4270714530156416E+00   2.0166519878246716E-01   1.4744150347363032E+01   1.3869968488416271E+02   2.3964122694020358E+02   1.3326484178830037E+02  5.68  0.24  0
'7'            57400.000000   2.3852628856828813E+00   2.3133843380000124E-01   5.5233513361190152E+00   2.5957162229026380E+02   1.4538335702208767E+02   1.7924209222683788E+02  5.53  0.15  0
'8'            57400.000000   2.2010448977374804E+00   1.5695397213249762E-01   5.8868449208517619E+00   1.1090552649756617E+02   2.8539951185103939E+02   1.9258399719161872E+02  6.58  0.28  0
'9'            57400.000000   2.3863626343025324E+00   1.2209628907069565E-01   5.5741630519222269E+00   6.8935264414789017E+01   5.9046553291084418E+00   3.1657732944309083E+02  6.28  0.17  0
'10'           57400.000000   3.1439152741254679E+00   1.1405579240732468E-01   3.8321866518824081E+00   2.8333570615742781E+02   3.1182187281071305E+02   3.0012110051898236E+02  5.47  0.15  0
'11'           57400.000000   2.4525398300598731E+00   1.0023551526493227E-01   4.6298491446288228E+00   1.2556668654424507E+02   1.9600474793901401E+02   3.3051953916401652E+02  6.43  0.15  0
'12'           57400.000000   2.3334443067341772E+00   2.2107555108041177E-01   8.3685862695530009E+00   2.3548150236920458E+02   6.9510363008953490E+01   1.6180883141127458E+02  7.32  0.22  0
'13'           57400.000000   2.5769047320344236E+00   8.3725857675573376E-02   1.6538582101619440E+01   4.3238934750015027E+01   8.0294292593629947E+01   2.6186326606990445E+02  6.78  0.15  0
'14'           57400.000000   2.5859742770018541E+00   1.6637431974983660E-01   9.1186017681989195E+00   8.6148819958683305E+01   9.8064391327367815E+01   2.4027803408072597E+02  6.40  0.15  0
'15'           57400.000000   2.6435343559646438E+00   1.8725192397889454E-01   1.1738081958515918E+01   2.9318214289441585E+02   9.7542001549182629E+01   9.2415844606851092E+00  5.36  0.23  0
'16'           57400.000000   2.9218050517373455E+00   1.3604619272131913E-01   3.0990318678478763E+00   1.5027690271176584E+02   2.2710288226859421E+02   5.3596769494643830E+01  6.04  0.20  0
'17'           57400.000000   2.4706208067834652E+00   1.3234976242122065E-01   5.5907130839780557E+00   1.2556587551035949E+02   1.3605065947142771E+02   3.5899766883856535E+02  7.72  0.15  0
'18'           57400.000000   2.2952380689511904E+00   2.1893700869709048E-01   1.0133791076452995E+01   1.5046977569444616E+02   2.2788237899424433E+02   2.8723663063907117E+02  6.49  0.25  0
'19'           57400.000000   2.4415950452733575E+00   1.5882542125867619E-01   1.5736950891319650E+00   2.1115319592848138E+02   1.8220338014651432E+02   2.4722673658004072E+02  7.24  0.10  0
'20'           57400.000000   2.4085918910365929E+00   1.4271010281546009E-01   7.0840737433527823E-01   2.0612842038091452E+02   2.5659253647653105E+02   1.6154261249895347E+02  6.56  0.25  0
